*******************************************************************************
Ephemeris / WWW_USER Mon Jul 15 19:10:20 2024 Pasadena, USA      / Horizons    
*******************************************************************************
Target body name: (2018 RY7)                      {source: JPL#20}
Center body name: Earth (399)                     {source: DE441}
Center-site name: Gemini South Obs., Cerro Pachon
*******************************************************************************
Start time      : A.D. 2018-Dec-14 23:49:00.0000 UT      
Stop  time      : A.D. 2018-Dec-15 09:26:00.0000 UT      
Step-size       : 1 minutes
*******************************************************************************
Target pole/equ : undefined
Target radii    : undefined                                                    
Center geodetic : 289.2634, -30.2406227, 2.71233  {E-lon(deg),Lat(deg),Alt(km)}
Center cylindric: 289.2634,5517.21435,-3194.81213 {E-lon(deg),Dxy(km),Dz(km)}
Center pole/equ : ITRF93                          {East-longitude positive}
Center radii    : 6378.137, 6378.137, 6356.752 km {Equator_a, b, pole_c}       
Target primary  : Sun
Vis. interferer : MOON (R_eq= 1737.400) km        {source: DE441}
Rel. light bend : Sun                             {source: DE441}
Rel. lght bnd GM: 1.3271E+11 km^3/s^2                                          
Small-body perts: Yes                             {source: SB441-N16}
Atmos refraction: NO (AIRLESS)
RA format       : HMS
Time format     : CAL 
Calendar mode   : Mixed Julian/Gregorian
RTS-only print  : NO       
EOP file        : eop.240715.p241008                                           
EOP coverage    : DATA-BASED 1962-JAN-20 TO 2024-JUL-15. PREDICTS-> 2024-OCT-07
Units conversion: 1 au= 149597870.700 km, c= 299792.458 km/s, 1 day= 86400.0 s 
Table cut-offs 1: Elevation (-90.0deg=NO ),Airmass (>38.000=NO), Daylight (YES)
Table cut-offs 2: Solar elongation (  0.0,180.0=NO ),Local Hour Angle( 0.0=NO )
Table cut-offs 3: RA/DEC angular rate (     0.0=NO )                           
*******************************************************************************
Initial IAU76/J2000 heliocentric ecliptic osculating elements (au, days, deg.):
  EPOCH=  2458422.5 ! 2018-Oct-31.00 (TDB)         Residual RMS= .22459        
   EC= .1470549687381346   QR= .8667733479166969   TP= 2458516.8896767548      
   OM= 2.838668085760325   W=  136.9006026425241   IN= 13.35135890147074       
  Equivalent ICRF heliocentric cartesian coordinates (au, au/d):
   X= 8.791791513870114E-01  Y= 4.508422091141234E-01  Z= 3.244113040133835E-01
  VX=-1.085418916943652E-02 VY= 1.006005810562689E-02 VZ= 7.673980932675997E-03
Asteroid physical parameters (km, seconds, rotational period in hours):        
   GM= n.a.                RAD= n.a.               ROTPER= n.a.                
   H= 24.4                 G= .150                 B-V= n.a.                   
                           ALBEDO= n.a.            STYP= n.a.                  
*******************************************************************************
 Date__(UT)__HR:MN     R.A._________(ICRF)_________DEC
******************************************************
$$SOE
 2018-Dec-15 03:55  m  19 26 34.008275 +40 46 43.91125
 2018-Dec-15 03:56  m  19 26 33.943981 +40 46 43.87147
 2018-Dec-15 03:57  m  19 26 33.879720 +40 46 43.83197
 2018-Dec-15 03:58  m  19 26 33.815493 +40 46 43.79276
 2018-Dec-15 03:59  m  19 26 33.751300 +40 46 43.75385
 2018-Dec-15 04:00  m  19 26 33.687140 +40 46 43.71522
 2018-Dec-15 04:01  m  19 26 33.623014 +40 46 43.67688
 2018-Dec-15 04:02  m  19 26 33.558920 +40 46 43.63884
 2018-Dec-15 04:03  m  19 26 33.494860 +40 46 43.60109
 2018-Dec-15 04:04  m  19 26 33.430832 +40 46 43.56363
 2018-Dec-15 04:05  m  19 26 33.366836 +40 46 43.52647
 2018-Dec-15 04:06  m  19 26 33.302873 +40 46 43.48961
 2018-Dec-15 04:07  m  19 26 33.238942 +40 46 43.45304
 2018-Dec-15 04:08  m  19 26 33.175043 +40 46 43.41678
 2018-Dec-15 04:09  m  19 26 33.111175 +40 46 43.38081
 2018-Dec-15 04:10  m  19 26 33.047340 +40 46 43.34515
 2018-Dec-15 04:11  m  19 26 32.983535 +40 46 43.30978
 2018-Dec-15 04:12  m  19 26 32.919762 +40 46 43.27472
 2018-Dec-15 04:13  m  19 26 32.856019 +40 46 43.23997
 2018-Dec-15 04:14  m  19 26 32.792307 +40 46 43.20552
 2018-Dec-15 04:15  m  19 26 32.728626 +40 46 43.17137
 2018-Dec-15 04:16  m  19 26 32.664975 +40 46 43.13754
 2018-Dec-15 04:17  m  19 26 32.601355 +40 46 43.10401
 2018-Dec-15 04:18  m  19 26 32.537764 +40 46 43.07079
 2018-Dec-15 04:19  m  19 26 32.474203 +40 46 43.03788
 2018-Dec-15 04:20  m  19 26 32.410672 +40 46 43.00528
 2018-Dec-15 04:21  m  19 26 32.347170 +40 46 42.97300
 2018-Dec-15 04:22  m  19 26 32.283697 +40 46 42.94103
 2018-Dec-15 04:23  m  19 26 32.220254 +40 46 42.90937
 2018-Dec-15 04:24  m  19 26 32.156839 +40 46 42.87803
 2018-Dec-15 04:25  m  19 26 32.093452 +40 46 42.84700
 2018-Dec-15 04:26  m  19 26 32.030095 +40 46 42.81629
 2018-Dec-15 04:27  m  19 26 31.966765 +40 46 42.78590
 2018-Dec-15 04:28  m  19 26 31.903463 +40 46 42.75583
 2018-Dec-15 04:29  m  19 26 31.840189 +40 46 42.72608
 2018-Dec-15 04:30  m  19 26 31.776943 +40 46 42.69665
 2018-Dec-15 04:31  m  19 26 31.713724 +40 46 42.66754
 2018-Dec-15 04:32  m  19 26 31.650532 +40 46 42.63875
 2018-Dec-15 04:33  m  19 26 31.587367 +40 46 42.61029
 2018-Dec-15 04:34  m  19 26 31.524229 +40 46 42.58215
 2018-Dec-15 04:35  m  19 26 31.461117 +40 46 42.55434
 2018-Dec-15 04:36  m  19 26 31.398032 +40 46 42.52685
 2018-Dec-15 04:37  m  19 26 31.334973 +40 46 42.49970
 2018-Dec-15 04:38  m  19 26 31.271940 +40 46 42.47286
 2018-Dec-15 04:39  m  19 26 31.208933 +40 46 42.44636
 2018-Dec-15 04:40  m  19 26 31.145951 +40 46 42.42019
 2018-Dec-15 04:41  m  19 26 31.082995 +40 46 42.39435
 2018-Dec-15 04:42  m  19 26 31.020063 +40 46 42.36884
 2018-Dec-15 04:43  m  19 26 30.957157 +40 46 42.34366
 2018-Dec-15 04:44  m  19 26 30.894275 +40 46 42.31882
 2018-Dec-15 04:45  m  19 26 30.831418 +40 46 42.29431
 2018-Dec-15 04:46  m  19 26 30.768584 +40 46 42.27013
 2018-Dec-15 04:47  m  19 26 30.705775 +40 46 42.24629
 2018-Dec-15 04:48  m  19 26 30.642990 +40 46 42.22279
 2018-Dec-15 04:49  m  19 26 30.580229 +40 46 42.19963
 2018-Dec-15 04:50  m  19 26 30.517491 +40 46 42.17680
 2018-Dec-15 04:51  m  19 26 30.454776 +40 46 42.15431
 2018-Dec-15 04:52  m  19 26 30.392084 +40 46 42.13216
 2018-Dec-15 04:53  m  19 26 30.329415 +40 46 42.11035
 2018-Dec-15 04:54  m  19 26 30.266768 +40 46 42.08889
 2018-Dec-15 04:55  m  19 26 30.204144 +40 46 42.06776
 2018-Dec-15 04:56  m  19 26 30.141542 +40 46 42.04698
 2018-Dec-15 04:57  m  19 26 30.078962 +40 46 42.02654
 2018-Dec-15 04:58  m  19 26 30.016403 +40 46 42.00644
 2018-Dec-15 04:59  m  19 26 29.953866 +40 46 41.98669
 2018-Dec-15 05:00  m  19 26 29.891351 +40 46 41.96729
 2018-Dec-15 05:01  m  19 26 29.828856 +40 46 41.94823
 2018-Dec-15 05:02  m  19 26 29.766382 +40 46 41.92952
 2018-Dec-15 05:03  m  19 26 29.703929 +40 46 41.91116
 2018-Dec-15 05:04     19 26 29.641496 +40 46 41.89314
 2018-Dec-15 05:05     19 26 29.579083 +40 46 41.87548
 2018-Dec-15 05:06     19 26 29.516691 +40 46 41.85816
 2018-Dec-15 05:07     19 26 29.454318 +40 46 41.84120
 2018-Dec-15 05:08     19 26 29.391964 +40 46 41.82459
 2018-Dec-15 05:09     19 26 29.329630 +40 46 41.80832
 2018-Dec-15 05:10     19 26 29.267315 +40 46 41.79241
 2018-Dec-15 05:11     19 26 29.205018 +40 46 41.77686
 2018-Dec-15 05:12     19 26 29.142741 +40 46 41.76166
 2018-Dec-15 05:13     19 26 29.080482 +40 46 41.74681
 2018-Dec-15 05:14     19 26 29.018241 +40 46 41.73232
 2018-Dec-15 05:15     19 26 28.956017 +40 46 41.71818
 2018-Dec-15 05:16     19 26 28.893812 +40 46 41.70440
 2018-Dec-15 05:17     19 26 28.831624 +40 46 41.69097
 2018-Dec-15 05:18     19 26 28.769454 +40 46 41.67791
 2018-Dec-15 05:19     19 26 28.707300 +40 46 41.66520
 2018-Dec-15 05:20     19 26 28.645163 +40 46 41.65285
 2018-Dec-15 05:21     19 26 28.583043 +40 46 41.64086
 2018-Dec-15 05:22     19 26 28.520940 +40 46 41.62923
 2018-Dec-15 05:23     19 26 28.458852 +40 46 41.61796
 2018-Dec-15 05:24     19 26 28.396780 +40 46 41.60705
 2018-Dec-15 05:25     19 26 28.334725 +40 46 41.59650
 2018-Dec-15 05:26     19 26 28.272684 +40 46 41.58631
 2018-Dec-15 05:27     19 26 28.210659 +40 46 41.57649
 2018-Dec-15 05:28     19 26 28.148649 +40 46 41.56703
 2018-Dec-15 05:29     19 26 28.086653 +40 46 41.55793
 2018-Dec-15 05:30     19 26 28.024673 +40 46 41.54920
 2018-Dec-15 05:31     19 26 27.962706 +40 46 41.54083
 2018-Dec-15 05:32     19 26 27.900754 +40 46 41.53283
 2018-Dec-15 05:33     19 26 27.838815 +40 46 41.52519
 2018-Dec-15 05:34     19 26 27.776890 +40 46 41.51792
 2018-Dec-15 05:35     19 26 27.714979 +40 46 41.51102
 2018-Dec-15 05:36     19 26 27.653081 +40 46 41.50448
 2018-Dec-15 05:37     19 26 27.591196 +40 46 41.49831
 2018-Dec-15 05:38     19 26 27.529323 +40 46 41.49250
 2018-Dec-15 05:39     19 26 27.467463 +40 46 41.48707
 2018-Dec-15 05:40     19 26 27.405615 +40 46 41.48200
 2018-Dec-15 05:41     19 26 27.343780 +40 46 41.47731
 2018-Dec-15 05:42     19 26 27.281956 +40 46 41.47298
 2018-Dec-15 05:43     19 26 27.220143 +40 46 41.46902
 2018-Dec-15 05:44     19 26 27.158342 +40 46 41.46544
 2018-Dec-15 05:45     19 26 27.096553 +40 46 41.46222
 2018-Dec-15 05:46     19 26 27.034774 +40 46 41.45938
 2018-Dec-15 05:47     19 26 26.973005 +40 46 41.45690
 2018-Dec-15 05:48     19 26 26.911247 +40 46 41.45480
 2018-Dec-15 05:49     19 26 26.849500 +40 46 41.45307
 2018-Dec-15 05:50     19 26 26.787762 +40 46 41.45172
 2018-Dec-15 05:51     19 26 26.726034 +40 46 41.45073
 2018-Dec-15 05:52     19 26 26.664315 +40 46 41.45012
 2018-Dec-15 05:53     19 26 26.602606 +40 46 41.44989
 2018-Dec-15 05:54     19 26 26.540905 +40 46 41.45002
 2018-Dec-15 05:55     19 26 26.479214 +40 46 41.45054
 2018-Dec-15 05:56     19 26 26.417531 +40 46 41.45142
 2018-Dec-15 05:57     19 26 26.355856 +40 46 41.45268
